OBJECT_NAME,OBJECT_ID,EPOCH,MEAN_MOTION,ECCENTRICITY,INCLINATION,RA_OF_ASC_NODE,ARG_OF_PERICENTER,MEAN_ANOMALY,EPHEMERIS_TYPE,CLASSIFICATION_TYPE,NORAD_CAT_ID,ELEMENT_SET_NO,REV_AT_EPOCH,BSTAR,MEAN_MOTION_DOT,MEAN_MOTION_DDOT
LEMUR-2-TOMATOKECHUP,2024-149D,2026-06-06T22:39:22.178016,15.35818906,.0000446,97.3793,239.9666,205.8269,154.2953,0,U,60471,999,10059,.36024185E-3,.1248E-3,0
CONNECTA IOT-1,2024-149E,2026-06-06T10:56:04.443072,15.23458470,.0001277,97.3754,233.9289,13.0146,347.1124,0,U,60472,999,10016,.21417765E-3,.5035E-4,0
LOPEN,2024-149F,2026-06-06T11:18:03.029760,15.39377611,.00002039,97.3773,240.7576,33.1105,327.0154,0,U,60473,999,10061,.50443324E-3,.19663E-3,0
ROCK,2024-149G,2026-06-06T23:27:30.705408,15.39392013,.00002609,97.3777,241.2851,283.3415,76.7802,0,U,60474,999,10069,.45305767E-3,.17655E-3,0
CONNECTA IOT-3,2024-149H,2026-06-07T00:03:37.843776,15.23474316,.00016251,97.3729,234.2226,327.9819,32.1319,0,U,60475,999,10025,.19828759E-3,.4658E-4,0
QUBE,2024-149J,2026-06-06T12:00:33.251904,15.46720625,.00010741,97.3772,243.7319,233.8436,126.2715,0,U,60476,999,10081,.59516958E-3,.29739E-3,0
WREN-1,2024-149L,2026-06-06T11:41:49.424640,15.41140542,.00029091,97.3761,241.4911,303.6378,56.4591,0,U,60478,999,10067,.62419608E-3,.25829E-3,0
TOMORROW-S1,2024-149M,2026-06-07T00:23:56.685984,15.32575353,.0001018,97.3744,238.5223,290.6186,69.4947,0,U,60479,999,10053,.27220189E-3,.8485E-4,0
FLOCK 4BE-18,2024-149N,2026-06-06T12:01:38.938368,15.41512275,.00023987,97.3723,241.1227,297.8764,62.2240,0,U,60480,999,10066,.55285289E-3,.23142E-3,0
FLOCK 4BE-7,2024-149P,2026-06-06T22:51:38.308608,15.39906732,.00014927,97.3753,240.9378,296.6857,63.4236,0,U,60481,999,10067,.62900211E-3,.24986E-3,0
TOMORROW-S2,2024-149T,2026-06-06T23:34:08.508288,15.32600307,.00016197,97.3813,238.9669,338.6648,21.4526,0,U,60485,999,10052,.28449923E-3,.8879E-4,0
FLOCK 4BE-36,2024-149U,2026-06-06T22:23:13.878528,15.42409136,.00022094,97.3739,242.2409,314.0252,46.0813,0,U,60486,999,10077,.4456848E-3,.19195E-3,0
FLOCK 4BE-25,2024-149V,2026-06-06T11:42:06.041088,15.38560856,.00007255,97.3792,240.5681,312.1238,47.9946,0,U,60487,999,10059,.49241196E-3,.18684E-3,0
FLOCK 4BE-31,2024-149W,2026-06-06T04:40:22.762560,15.43663670,.0001246,97.3796,242.3217,332.0989,28.0192,0,U,60488,999,10068,.6587388E-3,.29671E-3,0
FLOCK 4BE-20,2024-149X,2026-06-06T04:26:51.117504,15.37772193,.00023019,97.3691,239.1712,316.8300,43.2764,0,U,60489,999,10052,.5348025E-3,.19791E-3,0
FLOCK 4BE-23,2024-149Y,2026-06-06T22:53:35.144736,15.37422655,.00019637,97.3775,240.3130,324.6157,35.4957,0,U,60490,999,10062,.41427044E-3,.1513E-3,0
FLOCK 4BE-15,2024-149Z,2026-06-06T11:52:46.013664,15.57919493,.0001502,97.3681,242.4908,260.2707,99.8379,0,U,60491,999,10076,.13862529E-2,.104601E-2,0
FLOCK 4BE-17,2024-149AA,2026-06-06T11:55:37.315488,15.39478170,.00015539,97.3770,240.7850,303.2382,56.8715,0,U,60492,999,10061,.5032655E-3,.19682E-3,0
NUSAT-50 (NANCY ROMAN),2024-149AB,2026-06-06T23:08:28.943232,15.29678565,.00024969,97.3782,239.2930,209.5077,150.6023,0,U,60493,999,10056,.38340848E-3,.10955E-3,0
FLOCK 4BE-22,2024-149AC,2026-06-07T00:10:52.161024,15.40858448,.00021935,97.3731,241.4750,314.6262,45.4805,0,U,60494,999,10073,.4188915E-3,.17125E-3,0
FLOCK 4BE-34,2024-149AD,2026-06-06T04:19:51.666240,15.40843621,.00022603,97.3782,241.4572,339.9542,20.1615,0,U,60495,999,10063,.52572625E-3,.21515E-3,0
TYCHE,2024-149AE,2026-06-06T23:18:52.795296,15.25903966,.00010616,97.3749,235.9240,350.7928,9.3291,0,U,60496,999,10034,.20173833E-3,.51E-4,0
FLOCK 4BE-32,2024-149AF,2026-06-06T11:31:56.603136,15.41797281,.00022521,97.3715,241.2951,321.7900,38.3187,0,U,60497,999,10068,.54846909E-3,.23176E-3,0
NUSAT-48 (HENRIETTA LEAVITT),2024-149AG,2026-06-06T00:54:41.764896,15.29924928,.00028832,97.3909,238.5951,333.9515,26.1580,0,U,60498,999,10043,.46719318E-3,.13471E-3,0
FLOCK 4BE-30,2024-149AH,2026-06-06T04:33:31.912416,15.53809278,.0002632,97.3790,242.3634,247.7055,112.3920,0,U,60499,999,10006,.24033E-2,.157038E-2,0
NUSAT-49 (KLARA DAN VON NEUMANN),2024-149AJ,2026-06-06T03:31:17.662944,15.30320220,.00020112,97.3774,238.5123,27.7139,332.4208,0,U,60500,999,10044,.42351562E-3,.12353E-3,0
FLOCK 4BE-11,2024-149AK,2026-06-06T16:12:38.615616,15.42634440,.00022703,97.3701,241.7131,321.5456,38.5629,0,U,60501,999,10073,.48131136E-3,.20898E-3,0
YAM-7,2024-149AN,2026-06-06T16:05:13.343712,15.31674058,.00027796,97.3780,237.9639,359.9960,0.1281,0,U,60504,999,10044,.27790349E-3,.8424E-4,0
FLOCK 4BE-24,2024-149AP,2026-06-06T23:41:00.699360,15.42697616,.00026675,97.3713,242.2800,330.3906,29.7190,0,U,60505,999,10079,.52561595E-3,.22884E-3,0
